{
    "links": {
        "self": "http://www.neowsapp.com/rest/v1/neo/3560916?api_key=iIulBulltgU6a56xZRHN4H3l9WmuAYTsLGpBGhQ2"
    },
    "id": "3560916",
    "neo_reference_id": "3560916",
    "name": "(2011 GB)",
    "designation": "2011 GB",
    "nasa_jpl_url": "http://ssd.jpl.nasa.gov/sbdb.cgi?sstr=3560916",
    "absolute_magnitude_h": 25.1,
    "estimated_diameter": {
        "kilometers": {
            "estimated_diameter_min": 0.0253837029,
            "estimated_diameter_max": 0.0567596853
        },
        "meters": {
            "estimated_diameter_min": 25.3837029364,
            "estimated_diameter_max": 56.7596852866
        },
        "miles": {
            "estimated_diameter_min": 0.0157726969,
            "estimated_diameter_max": 0.0352688224
        },
        "feet": {
            "estimated_diameter_min": 83.279867942,
            "estimated_diameter_max": 186.2194458756
        }
    },
    "is_potentially_hazardous_asteroid": false,
    "close_approach_data": [
        {
            "close_approach_date": "2011-04-04",
            "close_approach_date_full": "2011-Apr-04 20:43",
            "epoch_date_close_approach": 1301949780000,
            "relative_velocity": {
                "kilometers_per_second": "5.7301869234",
                "kilometers_per_hour": "20628.6729242835",
                "miles_per_hour": "12817.8551289805"
            },
            "miss_distance": {
                "astronomical": "0.1106387753",
                "lunar": "43.0384835917",
                "kilometers": "16551325.124288611",
                "miles": "10284516.5328643918"
            },
            "orbiting_body": "Earth"
        }
    ],
    "orbital_data": {
        "orbit_id": "13",
        "orbit_determination_date": "2017-04-06 08:53:55",
        "first_observation_date": "2011-04-01",
        "last_observation_date": "2011-04-28",
        "data_arc_in_days": 27,
        "observations_used": 34,
        "orbit_uncertainty": "7",
        "minimum_orbit_intersection": ".109959",
        "jupiter_tisserand_invariant": "3.280",
        "epoch_osculation": "2459000.5",
        "eccentricity": ".5450073264683872",
        "semi_major_axis": "2.437490926574233",
        "inclination": "3.474247736201365",
        "ascending_node_longitude": "20.45299197002468",
        "orbital_period": "1389.994041212972",
        "perihelion_distance": "1.109040513391058",
        "perihelion_argument": "169.3964752761709",
        "aphelion_distance": "3.765941339757408",
        "perihelion_time": "2458433.596168948466",
        "mean_anomaly": "146.8246432196631",
        "mean_motion": ".2589939160356742",
        "equinox": "J2000",
        "orbit_class": {
            "orbit_class_type": "AMO",
            "orbit_class_description": "Near-Earth asteroid orbits similar to that of 1221 Amor",
            "orbit_class_range": "1.017 AU < q (perihelion) < 1.3 AU"
        }
    },
    "is_sentry_object": false
}